GLOBALSTAR M057         
1 25943U 99058A   25094.58657707 -.00000078  00000+0  13848-3 0  9991
2 25943  51.9979 197.0814 0002743 213.4249 146.6427 12.24816201157916
GLOBALSTAR M059         
1 25944U 99058B   25094.39301348 -.00000074  00000+0  14882-3 0  9993
2 25944  52.0035  46.8060 0000462 129.2938  17.0995 11.99975509565182
GLOBALSTAR M056         
1 25945U 99058C   25094.60968975 -.00000067  00000+0  23752-3 0  9991
2 25945  51.9977  50.0667 0001337  40.9211 130.5676 12.04778299153758
GLOBALSTAR M031         
1 25946U 99058D   25094.59558887 -.00000130  00000+0 -39645-3 0  9997
2 25946  51.9972 306.8500 0001908  53.7849 353.4927 12.16033253155591
GLOBALSTAR M039         
1 25961U 99062A   25094.44808466 -.00000095  00000+0  49369-4 0  9998
2 25961  51.9826 133.3113 0002897 179.5466 180.5404 12.62322085170938
GLOBALSTAR M034         
1 25962U 99062B   25094.54579541 -.00000059  00000+0  35253-3 0  9995
2 25962  51.9866 202.8126 0013758 259.5258 113.1250 11.79446254129684
GLOBALSTAR M029         
1 25963U 99062C   25094.53824949 -.00000054  00000+0  39934-3 0  9995
2 25963  51.9802 294.5190 0002191 352.5395  43.3683 11.99894057160284
GLOBALSTAR M061         
1 25964U 99062D   25094.59045287 -.00000046  00000+0  56791-3 0  9993
2 25964  51.9826  25.7522 0005717 182.5360 349.3107 11.76772660112517
